{
  "type": "FeatureCollection",
  "features": [
    {
      "type": "Feature",
      "properties": {
        "norad_id": 31938,
        "name": "FENGYUN 1C DEB",
        "group": "fengyun-1c-debris",
        "lat": 18.344619115625957,
        "lon": 22.29421079518612,
        "alt_km": 485.9296515504384,
        "timestamp": "2025-12-18T23:35:49.345459+00:00",
        "meta_object_name": "FENGYUN 1C DEB",
        "meta_object_id": "1999-025CMP",
        "meta_epoch": "2025-12-14T19:58:10.232832",
        "meta_mean_motion": 14.95638465,
        "meta_eccentricity": 0.01527985,
        "meta_inclination": 98.9295,
        "meta_ra_of_asc_node": 20.5547,
        "meta_arg_of_pericenter": 59.5249,
        "meta_mean_anomaly": 302.0958,
        "meta_ephemeris_type": 0,
        "meta_classification_type": "U",
        "meta_norad_cat_id": 31938,
        "meta_element_set_no": 999,
        "meta_rev_at_epoch": 99167,
        "meta_bstar": 0.00030579911,
        "meta_mean_motion_dot": 4.214e-05,
        "meta_mean_motion_ddot": 0,
        "tle_line1": "1 31938U 99025CMP 25348.83206288  .00004214  00000+0  30580-3 0  9997",
        "tle_line2": "2 31938  98.9295  20.5547 0152798  59.5249 302.0958 14.95638465991677"
      },
      "geometry": {
        "type": "Point",
        "coordinates": [
          22.29421079518612,
          18.344619115625957
        ]
      }
    },
    {
      "type": "Feature",
      "properties": {
        "norad_id": 31944,
        "name": "FENGYUN 1C DEB",
        "group": "fengyun-1c-debris",
        "lat": 14.412025461078334,
        "lon": -36.960908517141895,
        "alt_km": 963.7689187702135,
        "timestamp": "2025-12-18T23:35:49.345470+00:00",
        "meta_object_name": "FENGYUN 1C DEB",
        "meta_object_id": "1999-025CMV",
        "meta_epoch": "2025-12-12T04:22:40.814976",
        "meta_mean_motion": 14.11787529,
        "meta_eccentricity": 0.0151811,
        "meta_inclination": 99.2035,
        "meta_ra_of_asc_node": 133.6743,
        "meta_arg_of_pericenter": 5.8705,
        "meta_mean_anomaly": 173.5719,
        "meta_ephemeris_type": 0,
        "meta_classification_type": "U",
        "meta_norad_cat_id": 31944,
        "meta_element_set_no": 999,
        "meta_rev_at_epoch": 62902,
        "meta_bstar": 0.0007470391,
        "meta_mean_motion_dot": 1.471e-05,
        "meta_mean_motion_ddot": 0,
        "tle_line1": "1 31944U 99025CMV 25346.18241684  .00001471  00000+0  74704-3 0  9997",
        "tle_line2": "2 31944  99.2035 133.6743 0151811   5.8705 173.5719 14.11787529629027"
      },
      "geometry": {
        "type": "Point",
        "coordinates": [
          -36.960908517141895,
          14.412025461078334
        ]
      }
    },
    {
      "type": "Feature",
      "properties": {
        "norad_id": 31945,
        "name": "FENGYUN 1C DEB",
        "group": "fengyun-1c-debris",
        "lat": -4.2449860242772735,
        "lon": 70.0798619062624,
        "alt_km": 822.9460412847293,
        "timestamp": "2025-12-18T23:35:49.345480+00:00",
        "meta_object_name": "FENGYUN 1C DEB",
        "meta_object_id": "1999-025CMW",
        "meta_epoch": "2025-12-13T11:47:25.444608",
        "meta_mean_motion": 14.20810827,
        "meta_eccentricity": 0.00610185,
        "meta_inclination": 98.9627,
        "meta_ra_of_asc_node": 63.8406,
        "meta_arg_of_pericenter": 284.9979,
        "meta_mean_anomaly": 74.4449,
        "meta_ephemeris_type": 0,
        "meta_classification_type": "U",
        "meta_norad_cat_id": 31945,
        "meta_element_set_no": 999,
        "meta_rev_at_epoch": 95206,
        "meta_bstar": 0.0023325196,
        "meta_mean_motion_dot": 5.09e-05,
        "meta_mean_motion_ddot": 0,
        "tle_line1": "1 31945U 99025CMW 25347.49126672  .00005090  00000+0  23325-2 0  9995",
        "tle_line2": "2 31945  98.9627  63.8406 0061018 284.9979  74.4449 14.20810827952063"
      },
      "geometry": {
        "type": "Point",
        "coordinates": [
          70.0798619062624,
          -4.2449860242772735
        ]
      }
    },
    {
      "type": "Feature",
      "properties": {
        "norad_id": 31946,
        "name": "FENGYUN 1C DEB",
        "group": "fengyun-1c-debris",
        "lat": 46.904441622765844,
        "lon": -117.15483823940983,
        "alt_km": 843.3755179305454,
        "timestamp": "2025-12-18T23:35:49.345490+00:00",
        "meta_object_name": "FENGYUN 1C DEB",
        "meta_object_id": "1999-025CMX",
        "meta_epoch": "2025-12-16T09:57:01.816704",
        "meta_mean_motion": 14.16452802,
        "meta_eccentricity": 0.00819225,
        "meta_inclination": 98.8983,
        "meta_ra_of_asc_node": 50.6388,
        "meta_arg_of_pericenter": 39.1679,
        "meta_mean_anomaly": 321.5385,
        "meta_ephemeris_type": 0,
        "meta_classification_type": "U",
        "meta_norad_cat_id": 31946,
        "meta_element_set_no": 999,
        "meta_rev_at_epoch": 64060,
        "meta_bstar": 0.00089849331,
        "meta_mean_motion_dot": 1.802e-05,
        "meta_mean_motion_ddot": 0,
        "tle_line1": "1 31946U 99025CMX 25350.41460436  .00001802  00000+0  89849-3 0  9992",
        "tle_line2": "2 31946  98.8983  50.6388 0081922  39.1679 321.5385 14.16452802640603"
      },
      "geometry": {
        "type": "Point",
        "coordinates": [
          -117.15483823940983,
          46.904441622765844
        ]
      }
    },
    {
      "type": "Feature",
      "properties": {
        "norad_id": 31948,
        "name": "FENGYUN 1C DEB",
        "group": "fengyun-1c-debris",
        "lat": 59.419164324957926,
        "lon": 37.61798048754809,
        "alt_km": 782.2532500831112,
        "timestamp": "2025-12-18T23:35:49.345500+00:00",
        "meta_object_name": "FENGYUN 1C DEB",
        "meta_object_id": "1999-025CMZ",
        "meta_epoch": "2025-12-18T10:10:15.056832",
        "meta_mean_motion": 14.28329763,
        "meta_eccentricity": 0.00234205,
        "meta_inclination": 99.3923,
        "meta_ra_of_asc_node": 53.282,
        "meta_arg_of_pericenter": 5.6805,
        "meta_mean_anomaly": 59.9549,
        "meta_ephemeris_type": 0,
        "meta_classification_type": "U",
        "meta_norad_cat_id": 31948,
        "meta_element_set_no": 999,
        "meta_rev_at_epoch": 95109,
        "meta_bstar": 0.0011732562,
        "meta_mean_motion_dot": 2.889e-05,
        "meta_mean_motion_ddot": 0,
        "tle_line1": "1 31948U 99025CMZ 25352.42378538  .00002889  00000+0  11733-2 0  9990",
        "tle_line2": "2 31948  99.3923  53.2820 0023420   5.6805  59.9549 14.28329763951097"
      },
      "geometry": {
        "type": "Point",
        "coordinates": [
          37.61798048754809,
          59.419164324957926
        ]
      }
    },
    {
      "type": "Feature",
      "properties": {
        "norad_id": 31949,
        "name": "FENGYUN 1C DEB",
        "group": "fengyun-1c-debris",
        "lat": -13.874853586977162,
        "lon": -19.635050293561722,
        "alt_km": 919.2288576365527,
        "timestamp": "2025-12-18T23:35:49.345511+00:00",
        "meta_object_name": "FENGYUN 1C DEB",
        "meta_object_id": "1999-025CNA",
        "meta_epoch": "2025-11-23T05:03:27.897984",
        "meta_mean_motion": 14.1687356,
        "meta_eccentricity": 0.01252295,
        "meta_inclination": 98.5419,
        "meta_ra_of_asc_node": 313.4803,
        "meta_arg_of_pericenter": 269.0533,
        "meta_mean_anomaly": 89.6292,
        "meta_ephemeris_type": 0,
        "meta_classification_type": "U",
        "meta_norad_cat_id": 31949,
        "meta_element_set_no": 999,
        "meta_rev_at_epoch": 95228,
        "meta_bstar": 0.00041514195,
        "meta_mean_motion_dot": 8.56e-06,
        "meta_mean_motion_ddot": 0,
        "tle_line1": "1 31949U 99025CNA 25327.21073956  .00000856  00000+0  41514-3 0  9999",
        "tle_line2": "2 31949  98.5419 313.4803 0125229 269.0533  89.6292 14.16873560952288"
      },
      "geometry": {
        "type": "Point",
        "coordinates": [
          -19.635050293561722,
          -13.874853586977162
        ]
      }
    },
    {
      "type": "Feature",
      "properties": {
        "norad_id": 31952,
        "name": "FENGYUN 1C DEB",
        "group": "fengyun-1c-debris",
        "lat": -63.26818466046822,
        "lon": -87.73822096177624,
        "alt_km": 650.241961796306,
        "timestamp": "2025-12-18T23:35:49.345521+00:00",
        "meta_object_name": "FENGYUN 1C DEB",
        "meta_object_id": "1999-025CND",
        "meta_epoch": "2025-12-18T14:12:19.368576",
        "meta_mean_motion": 14.53519617,
        "meta_eccentricity": 0.01140991,
        "meta_inclination": 98.9557,
        "meta_ra_of_asc_node": 110.0904,
        "meta_arg_of_pericenter": 274.7014,
        "meta_mean_anomaly": 84.1157,
        "meta_ephemeris_type": 0,
        "meta_classification_type": "U",
        "meta_norad_cat_id": 31952,
        "meta_element_set_no": 999,
        "meta_rev_at_epoch": 97294,
        "meta_bstar": 0.00039311393,
        "meta_mean_motion_dot": 1.729e-05,
        "meta_mean_motion_ddot": 0,
        "tle_line1": "1 31952U 99025CND 25352.59189084  .00001729  00000+0  39311-3 0  9994",
        "tle_line2": "2 31952  98.9557 110.0904 0114099 274.7014  84.1157 14.53519617972948"
      },
      "geometry": {
        "type": "Point",
        "coordinates": [
          -87.73822096177624,
          -63.26818466046822
        ]
      }
    }
  ]
}